start=new Date('2023-05-05T00:00:00.000Z').valueOf();
sats=[{"DECAY_DATE":null,"MEAN_ANOMALY":"271.1354","MEAN_MOTION_DOT":"0.00017485","SEMIMAJOR_AXIS":"6925.494","REF_FRAME":"TEME","BSTAR":"0.00119130000000","MEAN_MOTION":"15.06352393","NORAD_CAT_ID":"46699","SITE":"AFETR","CLASSIFICATION_TYPE":"U","FILE":"3901186","RCS_SIZE":"LARGE","PERIOD":"95.595","OBJECT_NAME":"STARLINK-1799","EPHEMERIS_TYPE":"0","ELEMENT_SET_NO":"999","TLE_LINE2":"2 46699  53.0544 230.7465 0001127  88.9764 271.1354 15.06352393140361","APOAPSIS":"548.140","MEAN_ELEMENT_THEORY":"SGP4","ARG_OF_PERICENTER":"88.9764","OBJECT_ID":"2020-073AF","CENTER_NAME":"EARTH","LAUNCH_DATE":"2020-10-18","COUNTRY_CODE":"US","RA_OF_ASC_NODE":"230.7465","OBJECT_TYPE":"PAYLOAD","MEAN_MOTION_DDOT":"0.0000000000000","EPOCH":"2023-05-04T14:28:50.143296","PERIAPSIS":"546.579","REV_AT_EPOCH":"14036","TIME_SYSTEM":"UTC","GP_ID":"231268820","INCLINATION":"53.0544","TLE_LINE1":"1 46699U 20073AF  23124.60335814  .00017485  00000-0  11913-2 0  9990","ECCENTRICITY":"0.00011270"},{"RCS_SIZE":"LARGE","FILE":"3901186","ELEMENT_SET_NO":"999","EPHEMERIS_TYPE":"0","OBJECT_NAME":"STARLINK-1800","PERIOD":"95.592","SITE":"AFETR","CLASSIFICATION_TYPE":"U","NORAD_CAT_ID":"46700","MEAN_MOTION":"15.06395205","BSTAR":"0.00200960000000","REF_FRAME":"TEME","MEAN_ANOMALY":"274.2593","DECAY_DATE":null,"SEMIMAJOR_AXIS":"6925.363","MEAN_MOTION_DOT":"0.00029774","MEAN_MOTION_DDOT":"0.0000000000000","OBJECT_TYPE":"PAYLOAD","RA_OF_ASC_NODE":"245.1306","ECCENTRICITY":"0.00008440","TLE_LINE1":"1 46700U 20073AG  23124.74022809  .00029774  00000-0  20096-2 0  9991","INCLINATION":"53.0543","GP_ID":"231268573","REV_AT_EPOCH":"14017","TIME_SYSTEM":"UTC","EPOCH":"2023-05-04T17:45:55.706976","PERIAPSIS":"546.644","LAUNCH_DATE":"2020-10-18","CENTER_NAME":"EARTH","OBJECT_ID":"2020-073AG","COUNTRY_CODE":"US","MEAN_ELEMENT_THEORY":"SGP4","ARG_OF_PERICENTER":"85.8493","TLE_LINE2":"2 46700  53.0543 245.1306 0000844  85.8493 274.2593 15.06395205140174","APOAPSIS":"547.813"},{"RA_OF_ASC_NODE":"231.1753","OBJECT_TYPE":"PAYLOAD","MEAN_MOTION_DDOT":"0.0000000000000","EPOCH":"2023-05-04T12:10:51.547584","PERIAPSIS":"546.421","TIME_SYSTEM":"UTC","REV_AT_EPOCH":"14035","GP_ID":"231235766","INCLINATION":"53.0545","TLE_LINE1":"1 46701U 20073AH  23124.50754106  .00015790  00000-0  10770-2 0  9999","ECCENTRICITY":"0.00012150","OBJECT_ID":"2020-073AH","CENTER_NAME":"EARTH","LAUNCH_DATE":"2020-10-18","COUNTRY_CODE":"US","MEAN_ELEMENT_THEORY":"SGP4","ARG_OF_PERICENTER":"107.3063","TLE_LINE2":"2 46701  53.0545 231.1753 0001215 107.3063 252.8059 15.06383926140350","APOAPSIS":"548.104","FILE":"3900892","RCS_SIZE":"LARGE","PERIOD":"95.593","OBJECT_NAME":"STARLINK-1801","EPHEMERIS_TYPE":"0","ELEMENT_SET_NO":"999","SITE":"AFETR","CLASSIFICATION_TYPE":"U","REF_FRAME":"TEME","BSTAR":"0.00107700000000","MEAN_MOTION":"15.06383926","NORAD_CAT_ID":"46701","DECAY_DATE":null,"MEAN_ANOMALY":"252.8059","MEAN_MOTION_DOT":"0.00015790","SEMIMAJOR_AXIS":"6925.398"},{"MEAN_ANOMALY":"259.5642","DECAY_DATE":null,"MEAN_MOTION_DOT":"0.00020593","SEMIMAJOR_AXIS":"6925.354","BSTAR":"0.00139740000000","REF_FRAME":"TEME","NORAD_CAT_ID":"46702","MEAN_MOTION":"15.06398342","CLASSIFICATION_TYPE":"U","SITE":"AFETR","FILE":"3900892","RCS_SIZE":"LARGE","OBJECT_NAME":"STARLINK-1802","PERIOD":"95.592","ELEMENT_SET_NO":"999","EPHEMERIS_TYPE":"0","TLE_LINE2":"2 46702  53.0538 211.1203 0001248 100.5488 259.5642 15.06398342140634","APOAPSIS":"548.083","MEAN_ELEMENT_THEORY":"SGP4","ARG_OF_PERICENTER":"100.5488","CENTER_NAME":"EARTH","OBJECT_ID":"2020-073AJ","LAUNCH_DATE":"2020-10-18","COUNTRY_CODE":"US","OBJECT_TYPE":"PAYLOAD","RA_OF_ASC_NODE":"211.1203","MEAN_MOTION_DDOT":"0.0000000000000","TIME_SYSTEM":"UTC","REV_AT_EPOCH":"14063","PERIAPSIS":"546.354","EPOCH":"2023-05-04T12:29:27.420864","TLE_LINE1":"1 46702U 20073AJ  23124.52045626  .00020593  00000-0  13974-2 0  9998","ECCENTRICITY":"0.00012480","INCLINATION":"53.0538","GP_ID":"231236519"},{"DECAY_DATE":null,"MEAN_ANOMALY":"294.0254","MEAN_MOTION_DOT":"0.00028508","SEMIMAJOR_AXIS":"6925.352","REF_FRAME":"TEME","BSTAR":"0.00192510000000","MEAN_MOTION":"15.06398742","NORAD_CAT_ID":"46703","SITE":"AFETR","CLASSIFICATION_TYPE":"U","FILE":"3901186","RCS_SIZE":"LARGE","PERIOD":"95.592","OBJECT_NAME":"STARLINK-1803","EPHEMERIS_TYPE":"0","ELEMENT_SET_NO":"999","TLE_LINE2":"2 46703  53.0531 230.3841 0001333  66.0875 294.0254 15.06398742140378","APOAPSIS":"548.141","MEAN_ELEMENT_THEORY":"SGP4","ARG_OF_PERICENTER":"66.0875","OBJECT_ID":"2020-073AK","CENTER_NAME":"EARTH","LAUNCH_DATE":"2020-10-18","COUNTRY_CODE":"US","RA_OF_ASC_NODE":"230.3841","OBJECT_TYPE":"PAYLOAD","MEAN_MOTION_DDOT":"0.0000000000000","PERIAPSIS":"546.294","EPOCH":"2023-05-04T16:25:39.458208","REV_AT_EPOCH":"14037","TIME_SYSTEM":"UTC","GP_ID":"231268322","TLE_LINE1":"1 46703U 20073AK  23124.68448447  .00028508  00000-0  19251-2 0  9992","INCLINATION":"53.0531","ECCENTRICITY":"0.00013330"},{"SITE":"AFETR","CLASSIFICATION_TYPE":"U","ELEMENT_SET_NO":"999","EPHEMERIS_TYPE":"0","OBJECT_NAME":"STARLINK-1804","PERIOD":"95.592","RCS_SIZE":"LARGE","FILE":"3901186","SEMIMAJOR_AXIS":"6925.326","MEAN_MOTION_DOT":"0.00008132","MEAN_ANOMALY":"255.4212","DECAY_DATE":null,"NORAD_CAT_ID":"46704","MEAN_MOTION":"15.06407499","BSTAR":"0.00056409000000","REF_FRAME":"TEME","COUNTRY_CODE":"US","LAUNCH_DATE":"2020-10-18","CENTER_NAME":"EARTH","OBJECT_ID":"2020-073AL","TLE_LINE1":"1 46704U 20073AL  23124.66420274  .00008132  00000-0  56409-3 0  9997","ECCENTRICITY":"0.00014390","INCLINATION":"53.0548","GP_ID":"231269072","REV_AT_EPOCH":"14065","TIME_SYSTEM":"UTC","PERIAPSIS":"546.194","EPOCH":"2023-05-04T15:56:27.116736","MEAN_MOTION_DDOT":"0.0000000000000","OBJECT_TYPE":"PAYLOAD","RA_OF_ASC_NODE":"210.4720","APOAPSIS":"548.187","TLE_LINE2":"2 46704  53.0548 210.4720 0001439 104.6937 255.4212 15.06407499140653","ARG_OF_PERICENTER":"104.6937","MEAN_ELEMENT_THEORY":"SGP4"},{"BSTAR":"0.00029650000000","REF_FRAME":"TEME","NORAD_CAT_ID":"46705","MEAN_MOTION":"15.06383431","MEAN_ANOMALY":"252.0679","DECAY_DATE":null,"MEAN_MOTION_DOT":"0.00004136","SEMIMAJOR_AXIS":"6925.399","FILE":"3901186","RCS_SIZE":"LARGE","OBJECT_NAME":"STARLINK-1805","PERIOD":"95.593","ELEMENT_SET_NO":"999","EPHEMERIS_TYPE":"0","CLASSIFICATION_TYPE":"U","SITE":"AFETR","MEAN_ELEMENT_THEORY":"SGP4","ARG_OF_PERICENTER":"108.0451","TLE_LINE2":"2 46705  53.0539 245.1134 0001295 108.0451 252.0679 15.06383431140173","APOAPSIS":"548.161","OBJECT_TYPE":"PAYLOAD","RA_OF_ASC_NODE":"245.1134","MEAN_MOTION_DDOT":"0.0000000000000","REV_AT_EPOCH":"14017","TIME_SYSTEM":"UTC","PERIAPSIS":"546.368","EPOCH":"2023-05-04T17:51:13.416192","TLE_LINE1":"1 46705U 20073AM  23124.74390528  .00004136  00000-0  29650-3 0  9993","ECCENTRICITY":"0.00012950","INCLINATION":"53.0539","GP_ID":"231269324","CENTER_NAME":"EARTH","OBJECT_ID":"2020-073AM","LAUNCH_DATE":"2020-10-18","COUNTRY_CODE":"US"},{"ARG_OF_PERICENTER":"113.4002","MEAN_ELEMENT_THEORY":"SGP4","APOAPSIS":"548.120","TLE_LINE2":"2 46706  53.0548 231.1253 0001297 113.4002 246.7123 15.06397389140356","GP_ID":"231236019","ECCENTRICITY":"0.00012970","TLE_LINE1":"1 46706U 20073AN  23124.51860680  .00002724  00000-0  20169-3 0  9997","INCLINATION":"53.0548","PERIAPSIS":"546.323","EPOCH":"2023-05-04T12:26:47.627520","TIME_SYSTEM":"UTC","REV_AT_EPOCH":"14035","MEAN_MOTION_DDOT":"0.0000000000000","RA_OF_ASC_NODE":"231.1253","OBJECT_TYPE":"PAYLOAD","COUNTRY_CODE":"US","LAUNCH_DATE":"2020-10-18","OBJECT_ID":"2020-073AN","CENTER_NAME":"EARTH","MEAN_MOTION":"15.06397389","NORAD_CAT_ID":"46706","REF_FRAME":"TEME","BSTAR":"0.00020169000000","SEMIMAJOR_AXIS":"6925.357","MEAN_MOTION_DOT":"0.00002724","DECAY_DATE":null,"MEAN_ANOMALY":"246.7123","EPHEMERIS_TYPE":"0","ELEMENT_SET_NO":"999","PERIOD":"95.592","OBJECT_NAME":"STARLINK-1807","RCS_SIZE":"LARGE","FILE":"3900892","SITE":"AFETR","CLASSIFICATION_TYPE":"U"},{"SITE":"AFETR","CLASSIFICATION_TYPE":"U","RCS_SIZE":"LARGE","FILE":"3901186","EPHEMERIS_TYPE":"0","ELEMENT_SET_NO":"999","PERIOD":"95.592","OBJECT_NAME":"STARLINK-1808","DECAY_DATE":null,"MEAN_ANOMALY":"262.4015","SEMIMAJOR_AXIS":"6925.349","MEAN_MOTION_DOT":"0.00033958","MEAN_MOTION":"15.06399716","NORAD_CAT_ID":"46707","REF_FRAME":"TEME","BSTAR":"0.00228770000000","LAUNCH_DATE":"2020-10-18","OBJECT_ID":"2020-073AP","CENTER_NAME":"EARTH","COUNTRY_CODE":"US","MEAN_MOTION_DDOT":"0.0000000000000","RA_OF_ASC_NODE":"210.5688","OBJECT_TYPE":"PAYLOAD","GP_ID":"231268821","ECCENTRICITY":"0.00012110","TLE_LINE1":"1 46707U 20073AP  23124.64209106  .00033958  00000-0  22877-2 0  9992","INCLINATION":"53.0531","EPOCH":"2023-05-04T15:24:36.667584","PERIAPSIS":"546.376","REV_AT_EPOCH":"14065","TIME_SYSTEM":"UTC","TLE_LINE2":"2 46707  53.0531 210.5688 0001211  97.7111 262.4015 15.06399716140657","APOAPSIS":"548.053","MEAN_ELEMENT_THEORY":"SGP4","ARG_OF_PERICENTER":"97.7111"},{"PERIOD":"95.592","OBJECT_NAME":"STARLINK-1810","EPHEMERIS_TYPE":"0","ELEMENT_SET_NO":"999","FILE":"3901186","RCS_SIZE":"LARGE","CLASSIFICATION_TYPE":"U","SITE":"AFETR","REF_FRAME":"TEME","BSTAR":"0.00194160000000","MEAN_MOTION":"15.06406260","NORAD_CAT_ID":"46709","MEAN_MOTION_DOT":"0.00028762","SEMIMAJOR_AXIS":"6925.329","DECAY_DATE":null,"MEAN_ANOMALY":"283.2150","EPOCH":"2023-05-04T20:25:11.146080","PERIAPSIS":"546.489","REV_AT_EPOCH":"14018","TIME_SYSTEM":"UTC","GP_ID":"231268574","INCLINATION":"53.0532","TLE_LINE1":"1 46709U 20073AR  23124.85082345  .00028762  00000-0  19416-2 0  9993","ECCENTRICITY":"0.00010180","RA_OF_ASC_NODE":"244.7599","OBJECT_TYPE":"PAYLOAD","MEAN_MOTION_DDOT":"0.0000000000000","COUNTRY_CODE":"US","OBJECT_ID":"2020-073AR","CENTER_NAME":"EARTH","LAUNCH_DATE":"2020-10-18","ARG_OF_PERICENTER":"76.8953","MEAN_ELEMENT_THEORY":"SGP4","APOAPSIS":"547.899","TLE_LINE2":"2 46709  53.0532 244.7599 0001018  76.8953 283.2150 15.06406260140189"}];
